{"type": "FeatureCollection", "features": [ {"type": "Feature", "properties": {"norad_id": 34833, "name": "IRIDIUM 33 DEB", "group": "iridium-33-debris", "lat": -52.19629297939976, "lon": -122.81788316100565, "alt_km": 733.4588630131266, "timestamp": "2025-12-09T04:51:47.876940+00:00", "meta": {"OBJECT_NAME": "IRIDIUM 33 DEB", "OBJECT_ID": "1997-051MH", "EPOCH": "2025-12-08T11:20:22.290144", "MEAN_MOTION": 14.52337635, "ECCENTRICITY": 0.00217459, "INCLINATION": 86.3933, "RA_OF_ASC_NODE": 52.8332, "ARG_OF_PERICENTER": 111.6226, "MEAN_ANOMALY": 265.3104, "EPHEMERIS_TYPE": 0, "CLASSIFICATION_TYPE": "U", "NORAD_CAT_ID": 34833, "ELEMENT_SET_NO": 999, "REV_AT_EPOCH": 87653, "BSTAR": 0.0012181762, "MEAN_MOTION_DOT": 4.99e-05, "MEAN_MOTION_DDOT": 0}, "tle": {"line1": "1 34833U 97051MH  25342.47248021  .00004990  00000+0  12182-2 0  9994", "line2": "2 34833  86.3933  52.8332 0021745 111.6226 265.3104 14.52337635876535"}}, "geometry": {"type": "Point", "coordinates": [-122.81788316100565, -52.19629297939976]}}, {"type": "Feature", "properties": {"norad_id": 34870, "name": "IRIDIUM 33 DEB", "group": "iridium-33-debris", "lat": -78.38828339106603, "lon": 154.00847610461315, "alt_km": 643.3555170810623, "timestamp": "2025-12-09T04:51:47.876950+00:00", "meta": {"OBJECT_NAME": "IRIDIUM 33 DEB", "OBJECT_ID": "1997-051MQ", "EPOCH": "2025-12-07T16:41:29.147136", "MEAN_MOTION": 14.76272854, "ECCENTRICITY": 0.00154972, "INCLINATION": 86.3098, "RA_OF_ASC_NODE": 316.3932, "ARG_OF_PERICENTER": 201.8058, "MEAN_ANOMALY": 332.1989, "EPHEMERIS_TYPE": 0, "CLASSIFICATION_TYPE": "U", "NORAD_CAT_ID": 34870, "ELEMENT_SET_NO": 999, "REV_AT_EPOCH": 88836, "BSTAR": 0.0021061979, "MEAN_MOTION_DOT": 0.00014658, "MEAN_MOTION_DDOT": 0}, "tle": {"line1": "1 34870U 97051MQ  25341.69547624  .00014658  00000+0  21062-2 0  9998", "line2": "2 34870  86.3098 316.3932 0015497 201.8058 332.1989 14.76272854888369"}}, "geometry": {"type": "Point", "coordinates": [154.00847610461315, -78.38828339106603]}}, {"type": "Feature", "properties": {"norad_id": 34896, "name": "IRIDIUM 33 DEB", "group": "iridium-33-debris", "lat": -48.59835443855584, "lon": 152.4471671655094, "alt_km": 663.2273826365299, "timestamp": "2025-12-09T04:51:47.876960+00:00", "meta": {"OBJECT_NAME": "IRIDIUM 33 DEB", "OBJECT_ID": "1997-051MY", "EPOCH": "2025-12-08T06:47:45.155328", "MEAN_MOTION": 14.66206819, "ECCENTRICITY": 0.00239488, "INCLINATION": 86.3293, "RA_OF_ASC_NODE": 328.6838, "ARG_OF_PERICENTER": 231.0822, "MEAN_ANOMALY": 187.3834, "EPHEMERIS_TYPE": 0, "CLASSIFICATION_TYPE": "U", "NORAD_CAT_ID": 34896, "ELEMENT_SET_NO": 999, "REV_AT_EPOCH": 87554, "BSTAR": 0.001338628, "MEAN_MOTION_DOT": 7.421e-05, "MEAN_MOTION_DDOT": 0}, "tle": {"line1": "1 34896U 97051MY  25342.28316152  .00007421  00000+0  13386-2 0  9992", "line2": "2 34896  86.3293 328.6838 0023948 231.0822 187.3834 14.66206819875541"}}, "geometry": {"type": "Point", "coordinates": [152.4471671655094, -48.59835443855584]}}, {"type": "Feature", "properties": {"norad_id": 34926, "name": "IRIDIUM 33 DEB", "group": "iridium-33-debris", "lat": 72.00572895008175, "lon": 177.89112170789852, "alt_km": 756.7598018752287, "timestamp": "2025-12-09T04:51:47.876971+00:00", "meta": {"OBJECT_NAME": "IRIDIUM 33 DEB", "OBJECT_ID": "1997-051NF", "EPOCH": "2025-12-08T08:36:48.617856", "MEAN_MOTION": 14.5409802, "ECCENTRICITY": 0.007612, "INCLINATION": 86.1323, "RA_OF_ASC_NODE": 10.3036, "ARG_OF_PERICENTER": 307.7909, "MEAN_ANOMALY": 65.4893, "EPHEMERIS_TYPE": 0, "CLASSIFICATION_TYPE": "U", "NORAD_CAT_ID": 34926, "ELEMENT_SET_NO": 999, "REV_AT_EPOCH": 86393, "BSTAR": 0.0060894257, "MEAN_MOTION_DOT": 0.00026822, "MEAN_MOTION_DDOT": 0}, "tle": {"line1": "1 34926U 97051NF  25342.35889604  .00026822  00000+0  60894-2 0  9993", "line2": "2 34926  86.1323  10.3036 0076120 307.7909  65.4893 14.54098020863930"}}, "geometry": {"type": "Point", "coordinates": [177.89112170789852, 72.00572895008175]}}, {"type": "Feature", "properties": {"norad_id": 34985, "name": "IRIDIUM 33 DEB", "group": "iridium-33-debris", "lat": 28.484784576356788, "lon": 60.36270948873977, "alt_km": 763.9986524957958, "timestamp": "2025-12-09T04:51:47.876981+00:00", "meta": {"OBJECT_NAME": "IRIDIUM 33 DEB", "OBJECT_ID": "1997-051NR", "EPOCH": "2025-12-08T05:40:04.658592", "MEAN_MOTION": 14.41979756, "ECCENTRICITY": 0.00202828, "INCLINATION": 86.3695, "RA_OF_ASC_NODE": 58.8006, "ARG_OF_PERICENTER": 235.2895, "MEAN_ANOMALY": 179.3648, "EPHEMERIS_TYPE": 0, "CLASSIFICATION_TYPE": "U", "NORAD_CAT_ID": 34985, "ELEMENT_SET_NO": 999, "REV_AT_EPOCH": 87110, "BSTAR": 0.0010950657, "MEAN_MOTION_DOT": 3.617e-05, "MEAN_MOTION_DDOT": 0}, "tle": {"line1": "1 34985U 97051NR  25342.23616503  .00003617  00000+0  10951-2 0  9997", "line2": "2 34985  86.3695  58.8006 0020282 235.2895 179.3648 14.41979756871101"}}, "geometry": {"type": "Point", "coordinates": [60.36270948873977, 28.484784576356788]}}, {"type": "Feature", "properties": {"norad_id": 35051, "name": "IRIDIUM 33 DEB", "group": "iridium-33-debris", "lat": -70.02850119885701, "lon": -159.40738200787038, "alt_km": 747.465046945732, "timestamp": "2025-12-09T04:51:47.876991+00:00", "meta": {"OBJECT_NAME": "IRIDIUM 33 DEB", "OBJECT_ID": "1997-051NX", "EPOCH": "2025-12-08T19:24:58.044096", "MEAN_MOTION": 14.47572985, "ECCENTRICITY": 0.0010583, "INCLINATION": 86.3244, "RA_OF_ASC_NODE": 10.5757, "ARG_OF_PERICENTER": 101.6319, "MEAN_ANOMALY": 258.6072, "EPHEMERIS_TYPE": 0, "CLASSIFICATION_TYPE": "U", "NORAD_CAT_ID": 35051, "ELEMENT_SET_NO": 999, "REV_AT_EPOCH": 86939, "BSTAR": 0.0011378, "MEAN_MOTION_DOT": 4.208e-05, "MEAN_MOTION_DDOT": 0}, "tle": {"line1": "1 35051U 97051NX  25342.80900514  .00004208  00000+0  11378-2 0  9994", "line2": "2 35051  86.3244  10.5757 0010583 101.6319 258.6072 14.47572985869393"}}, "geometry": {"type": "Point", "coordinates": [-159.40738200787038, -70.02850119885701]}}, {"type": "Feature", "properties": {"norad_id": 35052, "name": "IRIDIUM 33 DEB", "group": "iridium-33-debris", "lat": 24.637711843100284, "lon": -159.69337510400797, "alt_km": 758.0804719372309, "timestamp": "2025-12-09T04:51:47.877002+00:00", "meta": {"OBJECT_NAME": "IRIDIUM 33 DEB", "OBJECT_ID": "1997-051NY", "EPOCH": "2025-12-08T19:47:53.049120", "MEAN_MOTION": 14.38486321, "ECCENTRICITY": 0.0013687, "INCLINATION": 86.3313, "RA_OF_ASC_NODE": 22.1547, "ARG_OF_PERICENTER": 95.9359, "MEAN_ANOMALY": 264.34, "EPHEMERIS_TYPE": 0, "CLASSIFICATION_TYPE": "U", "NORAD_CAT_ID": 35052, "ELEMENT_SET_NO": 999, "REV_AT_EPOCH": 87219, "BSTAR": 0.00035523, "MEAN_MOTION_DOT": 1.105e-05, "MEAN_MOTION_DDOT": 0}, "tle": {"line1": "1 35052U 97051NY  25342.82491955  .00001105  00000+0  35523-3 0  9993", "line2": "2 35052  86.3313  22.1547 0013687  95.9359 264.3400 14.38486321872193"}}, "geometry": {"type": "Point", "coordinates": [-159.69337510400797, 24.637711843100284]}}, {"type": "Feature", "properties": {"norad_id": 35080, "name": "IRIDIUM 33 DEB", "group": "iridium-33-debris", "lat": 86.03558497119852, "lon": 127.27255482783062, "alt_km": 615.1516521533931, "timestamp": "2025-12-09T04:51:47.877012+00:00", "meta": {"OBJECT_NAME": "IRIDIUM 33 DEB", "OBJECT_ID": "1997-051PF", "EPOCH": "2025-12-08T04:12:23.440320", "MEAN_MOTION": 14.85168488, "ECCENTRICITY": 0.00618555, "INCLINATION": 86.2067, "RA_OF_ASC_NODE": 54.5559, "ARG_OF_PERICENTER": 196.3675, "MEAN_ANOMALY": 163.5554, "EPHEMERIS_TYPE": 0, "CLASSIFICATION_TYPE": "U", "NORAD_CAT_ID": 35080, "ELEMENT_SET_NO": 999, "REV_AT_EPOCH": 69620, "BSTAR": 0.0097703177, "MEAN_MOTION_DOT": 0.00087525, "MEAN_MOTION_DDOT": 0}, "tle": {"line1": "1 35080U 97051PF  25342.17527130  .00087525  00000+0  97703-2 0  9994", "line2": "2 35080  86.2067  54.5559 0061855 196.3675 163.5554 14.85168488696207"}}, "geometry": {"type": "Point", "coordinates": [127.27255482783062, 86.03558497119852]}}, {"type": "Feature", "properties": {"norad_id": 35297, "name": "IRIDIUM 33 DEB", "group": "iridium-33-debris", "lat": -22.701216291373242, "lon": 62.75516925816618, "alt_km": 759.1189988810447, "timestamp": "2025-12-09T04:51:47.877025+00:00", "meta": {"OBJECT_NAME": "IRIDIUM 33 DEB", "OBJECT_ID": "1997-051PM", "EPOCH": "2025-12-06T00:31:29.302752", "MEAN_MOTION": 14.45108459, "ECCENTRICITY": 0.00170329, "INCLINATION": 86.3867, "RA_OF_ASC_NODE": 65.6268, "ARG_OF_PERICENTER": 161.2449, "MEAN_ANOMALY": 198.9384, "EPHEMERIS_TYPE": 0, "CLASSIFICATION_TYPE": "U", "NORAD_CAT_ID": 35297, "ELEMENT_SET_NO": 999, "REV_AT_EPOCH": 70329, "BSTAR": 0.0012426888, "MEAN_MOTION_DOT": 4.371e-05, "MEAN_MOTION_DDOT": 0}, "tle": {"line1": "1 35297U 97051PM  25340.02186693  .00004371  00000+0  12427-2 0  9999", "line2": "2 35297  86.3867  65.6268 0017032 161.2449 198.9384 14.45108459703293"}}, "geometry": {"type": "Point", "coordinates": [62.75516925816618, -22.701216291373242]}}, {"type": "Feature", "properties": {"norad_id": 35299, "name": "IRIDIUM 33 DEB", "group": "iridium-33-debris", "lat": -35.522190742387494, "lon": 32.07018072271501, "alt_km": 798.0753726725989, "timestamp": "2025-12-09T04:51:47.877046+00:00", "meta": {"OBJECT_NAME": "IRIDIUM 33 DEB", "OBJECT_ID": "1997-051PP", "EPOCH": "2025-12-08T14:43:37.905024", "MEAN_MOTION": 14.40830501, "ECCENTRICITY": 0.0058866, "INCLINATION": 86.2883, "RA_OF_ASC_NODE": 34.9826, "ARG_OF_PERICENTER": 115.5185, "MEAN_ANOMALY": 36.1002, "EPHEMERIS_TYPE": 0, "CLASSIFICATION_TYPE": "U", "NORAD_CAT_ID": 35299, "ELEMENT_SET_NO": 999, "REV_AT_EPOCH": 86271, "BSTAR": 0.001279, "MEAN_MOTION_DOT": 4.2e-05, "MEAN_MOTION_DDOT": 0}, "tle": {"line1": "1 35299U 97051PP  25342.61363316  .00004200  00000+0  12790-2 0  9991", "line2": "2 35299  86.2883  34.9826 0058866 115.5185  36.1002 14.40830501862718"}}, "geometry": {"type": "Point", "coordinates": [32.07018072271501, -35.522190742387494]}}]}